[{"OBJECT_NAME":"STARLINK-1270","OBJECT_ID":"2020-012BM","EPOCH":"2026-03-09T23:16:53.813856","MEAN_MOTION":15.47116373,"ECCENTRICITY":0.00038015,"INCLINATION":53.0511,"RA_OF_ASC_NODE":346.2195,"ARG_OF_PERICENTER":102.222,"MEAN_ANOMALY":257.9213,"EPHEMERIS_TYPE":0,"CLASSIFICATION_TYPE":"U","NORAD_CAT_ID":45237,"ELEMENT_SET_NO":999,"REV_AT_EPOCH":33571,"BSTAR":0.0019102409,"MEAN_MOTION_DOT":0.00099262,"MEAN_MOTION_DDOT":0},{"OBJECT_NAME":"STARLINK-2684","OBJECT_ID":"2021-040AV","EPOCH":"2026-03-10T00:00:02.999808","MEAN_MOTION":15.26005031,"ECCENTRICITY":8.315e-5,"INCLINATION":53.1397,"RA_OF_ASC_NODE":189.4771,"ARG_OF_PERICENTER":122.0749,"MEAN_ANOMALY":64.8913,"EPHEMERIS_TYPE":0,"CLASSIFICATION_TYPE":"U","NORAD_CAT_ID":48471,"ELEMENT_SET_NO":999,"REV_AT_EPOCH":574,"BSTAR":0.055187401,"MEAN_MOTION_DOT":0.01582676,"MEAN_MOTION_DDOT":0}]
